[{"OBJECT_NAME":"STARLINK-4318","OBJECT_ID":"2022-077AV","EPOCH":"2026-03-09T10:48:22.686048","MEAN_MOTION":15.0127407,"ECCENTRICITY":0.00012121,"INCLINATION":97.6032,"RA_OF_ASC_NODE":249.9879,"ARG_OF_PERICENTER":113.2283,"MEAN_ANOMALY":246.907,"EPHEMERIS_TYPE":0,"CLASSIFICATION_TYPE":"U","NORAD_CAT_ID":53086,"ELEMENT_SET_NO":999,"REV_AT_EPOCH":20088,"BSTAR":0.0001256365,"MEAN_MOTION_DOT":1.556e-5,"MEAN_MOTION_DDOT":0},{"OBJECT_NAME":"SL-8 DEB","OBJECT_ID":"1972-043D","EPOCH":"2026-03-09T22:05:55.512096","MEAN_MOTION":15.0117212,"ECCENTRICITY":0.00057803,"INCLINATION":74.0604,"RA_OF_ASC_NODE":30.4168,"ARG_OF_PERICENTER":131.677,"MEAN_ANOMALY":228.4914,"EPHEMERIS_TYPE":0,"CLASSIFICATION_TYPE":"U","NORAD_CAT_ID":6065,"ELEMENT_SET_NO":999,"REV_AT_EPOCH":84295,"BSTAR":0.0010977341,"MEAN_MOTION_DOT":0.00014073,"MEAN_MOTION_DDOT":0}]
